STARLETTE               
1 07646U 75010A   22344.21909366 -.00000161  00000+0 -13378-4 0  9992
2 07646  49.8219 136.4637 0205767 138.1786 223.5035 13.82315197416785
LAGEOS 1                
1 08820U 76039A   22343.33084563 -.00000002  00000+0  00000+0 0  9990
2 08820 109.8497  98.9063 0045148 217.7856 202.7126  6.38664998831024
AJISAI (EGS)            
1 16908U 86061A   22343.56643969 -.00000118  00000+0 -14229-3 0  9999
2 16908  50.0067 140.5872 0011494 147.0654 249.7878 12.44498424320650
COSMOS 1989 (ETALON 1)  
1 19751U 89001C   22343.73549850  .00000010  00000+0  00000+0 0  9995
2 19751  64.3513 116.3551 0023914 213.6988 106.3678  2.13156276264034
COSMOS 2024 (ETALON 2)  
1 20026U 89039C   22343.35148640 -.00000064  00000+0  00000+0 0  9993
2 20026  65.5147 354.4551 0018677 218.7569 105.6505  2.13204420261081
LAGEOS 2                
1 22195U 92070B   22342.38155767 -.00000009  00000+0  00000+0 0  9990
2 22195  52.6781 359.8897 0138248 344.8306 113.6349  6.47293482712117
STELLA                  
1 22824U 93061B   22344.57150686 -.00000035  00000+0  47063-5 0  9993
2 22824  98.9507   9.8332 0006591  15.1743 132.4007 14.27395723521665
LARES                   
1 38077U 12006A   22343.69388988 -.00000025  00000+0  80506-4 0  9997
2 38077  69.4963 327.9838 0009968 189.4151 170.6690 12.54931504495893
